     2.10           N: GPS NAV DATA                         RINEX VERSION / TYPE
CONVBIN 2.4.3                           20180606 222127 UTC PGM / RUN BY / DATE 
log: /var/lib/jenkins/workspace/TimeParamDataCollect_NVS/nvsCOMMENT             
format: NVS BINR                                            COMMENT             
                                                            END OF HEADER       
 7 18  6  6 18  0  0.0  .179634422064E-03 -.625277607469E-11  .000000000000E+00
     .880000000000E+02  .191250000000E+02  .482270083244E-08 -.629023217479E+00
     .122189521790E-05  .116905454779E-01  .576302409172E-05  .515365589142E+04
     .324000000000E+06  .128522515297E-06  .279764232960E+00  .180676579475E-06
     .958823840850E+00  .265781250000E+03 -.252769718524E+01 -.834249035535E-08
    -.278583032673E-10  .100000000000E+01  .200400000000E+04  .000000000000E+00
     .200000000000E+01  .000000000000E+00 -.111758708954E-07  .880000000000E+02
     .316845000000E+06  .000000000000E+00
 8 18  6  6 18  0  0.0 -.103865750134E-03 -.136424205266E-11  .000000000000E+00
     .102000000000E+03  .279062500000E+02  .444982809281E-08  .252403624152E+01
     .164657831192E-05  .346663431264E-02  .698864459991E-05  .515357984161E+04
     .324000000000E+06 -.130385160446E-07  .234431938874E+01  .160187482834E-06
     .969312597749E+00  .250281250000E+03 -.419526538644E+00 -.806640742682E-08
     .121790787361E-09  .100000000000E+01  .200400000000E+04  .000000000000E+00
     .200000000000E+01  .000000000000E+00  .512227416039E-08  .102000000000E+03
     .316850000000E+06  .000000000000E+00
 9 18  6  6 18  0  0.0  .514538943768E-03  .113686837722E-12  .000000000000E+00
     .620000000000E+02  .361250000000E+02  .457019058014E-08  .239332560540E+01
     .192783772945E-05  .916669610888E-03  .871531665325E-05  .515360966492E+04
     .324000000000E+06 -.409781932831E-07 -.797574659626E+00  .135973095894E-06
     .952626440029E+00  .207250000000E+03  .187341646914E+01 -.797604652007E-08
     .262153776900E-09  .100000000000E+01  .200400000000E+04  .000000000000E+00
     .200000000000E+01  .000000000000E+00  .931322574615E-09  .620000000000E+02
     .316855000000E+06  .000000000000E+00
11 18  6  6 18  0  0.0 -.734553694725E-03  .102318153949E-11  .000000000000E+00
     .980000000000E+02 -.212500000000E+01  .616561402628E-08 -.631704493233E+00
     .633299350739E-07  .168703516247E-01  .441260635853E-05  .515363353920E+04
     .324000000000E+06 -.173225998878E-06  .298143959738E+01 -.558793544769E-08
     .905744591075E+00  .265312500000E+03  .176646119126E+01 -.927895793441E-08
     .143220251413E-09  .100000000000E+01  .200400000000E+04  .000000000000E+00
     .200000000000E+01  .000000000000E+00 -.121071934700E-07  .980000000000E+02
     .316860000000E+06  .000000000000E+00
18 18  6  6 18  0  0.0  .184108503163E-04  .466116034659E-11  .000000000000E+00
     .110000000000E+02 -.280625000000E+02  .506842528017E-08 -.217207320654E+00
    -.134669244289E-05  .146007788135E-01  .479072332382E-05  .515365084076E+04
     .324000000000E+06 -.119209289551E-06 -.292164105223E+01  .931322574615E-07
     .950030070577E+00  .280031250000E+03  .130948539808E+01 -.870929134837E-08
    -.514307137242E-10  .100000000000E+01  .200400000000E+04  .000000000000E+00
     .200000000000E+01  .000000000000E+00 -.698491930962E-08  .110000000000E+02
     .316865000000E+06  .000000000000E+00
27 18  6  6 18  0  0.0  .366914093494E-03 -.136424205266E-11  .000000000000E+00
     .400000000000E+02  .228750000000E+02  .420588954289E-08  .222980268229E+01
     .120699405670E-05  .598236091901E-02  .706315040588E-05  .515368946838E+04
     .324000000000E+06 -.214204192162E-06  .235285731365E+01  .745058059692E-08
     .977512203844E+00  .253437500000E+03  .432501521893E+00 -.791890128260E-08
     .153577825704E-09  .100000000000E+01  .200400000000E+04  .000000000000E+00
     .200000000000E+01  .000000000000E+00  .139698386192E-08  .400000000000E+02
     .316870000000E+06  .000000000000E+00
17 18  6  6 18  0  0.0 -.908202528954E-04  .352429196937E-11  .000000000000E+00
     .360000000000E+02  .338437500000E+02  .404231119064E-08  .212966742316E+01
     .152178108692E-05  .123436806025E-01  .653415918350E-05  .515357021904E+04
     .324000000000E+06  .139698386192E-06  .240697495146E+01 -.206753611565E-06
     .982822832002E+00  .261875000000E+03 -.177777198231E+01 -.775353725166E-08
     .130719730716E-09  .100000000000E+01  .200400000000E+04  .000000000000E+00
     .200000000000E+01  .000000000000E+00 -.111758708954E-07  .360000000000E+02
     .319120000000E+06  .000000000000E+00
13 18  6  6 18  0  0.0 -.937562435865E-04  .341060513165E-12  .000000000000E+00
     .350000000000E+02  .361875000000E+02  .436446755472E-08  .867607049670E+00
     .184029340744E-05  .334564573132E-02  .838935375214E-05  .515365983009E+04
     .324000000000E+06  .149011611938E-07 -.665738730827E+00 -.260770320892E-07
     .968448193103E+00  .219531250000E+03  .157087714570E+01 -.799711882638E-08
     .271439877989E-09  .100000000000E+01  .200400000000E+04  .000000000000E+00
     .200000000000E+01  .000000000000E+00 -.111758708954E-07  .350000000000E+02
     .319425000000E+06  .000000000000E+00
19 18  6  6 18  0  0.0 -.430523872375E-03  .295585778076E-11  .000000000000E+00
     .640000000000E+02  .383125000000E+02  .419767475987E-08 -.121377861580E+01
     .219419598579E-05  .990810466465E-02  .642612576485E-05  .515371753120E+04
     .324000000000E+06  .782310962677E-07  .245394608962E+01  .219792127609E-06
     .980374602023E+00  .266750000000E+03  .119721016593E+01 -.801961976364E-08
     .174292974288E-09  .100000000000E+01  .200400000000E+04  .000000000000E+00
     .200000000000E+01  .000000000000E+00 -.153668224812E-07  .640000000000E+02
     .323235000000E+06  .000000000000E+00
22 18  6  6 17 59 44.0 -.417102605104E-03 -.126192389871E-10  .000000000000E+00
     .480000000000E+02 -.569687500000E+02  .526021890976E-08  .154028386406E+01
    -.327453017235E-05  .737025914714E-02  .819563865662E-05  .515379868889E+04
     .323984000000E+06  .409781932831E-07 -.189157809971E+01 -.156462192535E-06
     .924877246678E+00  .202500000000E+03 -.153211480369E+01 -.838320633705E-08
    -.151434879299E-09  .100000000000E+01  .200400000000E+04  .000000000000E+00
     .200000000000E+01  .000000000000E+00 -.176951289177E-07  .480000000000E+02
     .323480000000E+06  .000000000000E+00
13 18  6  6 20  0  0.0 -.937534496188E-04  .341060513165E-12  .000000000000E+00
     .360000000000E+02  .402812500000E+02  .428375000402E-08  .191786147986E+01
     .210478901863E-05  .334535946604E-02  .853091478348E-05  .515365931702E+04
     .331200000000E+06  .124797224998E-06 -.665796065513E+00 -.223517417908E-07
     .968450605455E+00  .219062500000E+03  .157081121930E+01 -.789711466081E-08
     .272154193457E-09  .100000000000E+01  .200400000000E+04  .000000000000E+00
     .200000000000E+01  .000000000000E+00 -.111758708954E-07  .360000000000E+02
     .324020000000E+06  .000000000000E+00
17 18  6  6 20  0  0.0 -.907946377993E-04  .352429196937E-11  .000000000000E+00
     .370000000000E+02  .298437500000E+02  .412374301373E-08 -.310325614655E+01
     .162608921528E-05  .123441573232E-01  .651739537716E-05  .515356923485E+04
     .331200000000E+06  .232830643654E-06  .240691923184E+01 -.782310962677E-07
     .982823829712E+00  .262687500000E+03 -.177779237539E+01 -.773496504948E-08
     .168221292806E-09  .100000000000E+01  .200400000000E+04  .000000000000E+00
     .200000000000E+01  .000000000000E+00 -.111758708954E-07  .370000000000E+02
     .324025000000E+06  .000000000000E+00
28 18  6  6 20  0  0.0  .721522629261E-03  .318323145621E-11  .000000000000E+00
     .280000000000E+02  .153750000000E+02  .384694576541E-08 -.211364033344E+01
     .103004276752E-05  .194802996702E-01  .795349478722E-05  .515368287659E+04
     .331200000000E+06  .264495611191E-06  .139564798577E+01  .271946191788E-06
     .985654091969E+00  .233375000000E+03 -.151942815136E+01 -.747173979938E-08
    -.435732435719E-10  .100000000000E+01  .200400000000E+04  .000000000000E+00
     .200000000000E+01  .000000000000E+00 -.111758708954E-07  .280000000000E+02
     .324030000000E+06  .000000000000E+00
30 18  6  6 20  0  0.0  .655665099621E-04 -.443378667114E-11  .000000000000E+00
     .640000000000E+02  .201250000000E+02  .499949387445E-08  .502338129611E+00
     .108033418655E-05  .346087315120E-02  .544451177120E-05  .515372828293E+04
     .331200000000E+06  .447034835815E-07  .313127500252E+00  .596046447754E-07
     .944413341441E+00  .265531250000E+03 -.307074492371E+01 -.837570602463E-08
    -.496449250533E-10  .100000000000E+01  .200400000000E+04  .000000000000E+00
     .200000000000E+01  .000000000000E+00  .372529029846E-08  .640000000000E+02
     .324035000000E+06  .000000000000E+00
 1 18  6  6 20  0  0.0 -.539608299732E-04 -.318323145621E-11  .000000000000E+00
     .660000000000E+02 -.302187500000E+02  .458197672512E-08  .110223605107E+01
    -.134669244289E-05  .784620724153E-02  .515393912792E-05  .515366984367E+04
     .331200000000E+06  .279396772385E-07 -.287435540862E+01  .126659870148E-06
     .971644784677E+00  .285843750000E+03  .635649706802E+00 -.828963101069E-08
    -.939324840936E-10  .100000000000E+01  .200400000000E+04  .000000000000E+00
     .200000000000E+01  .000000000000E+00  .558793544769E-08  .660000000000E+02
     .324040000000E+06  .000000000000E+00
